[{"OBJECT_NAME":"STARLINK-3069","OBJECT_ID":"2021-082AY","EPOCH":"2026-02-16T19:25:25.019040","MEAN_MOTION":14.98298612,"ECCENTRICITY":0.000271,"INCLINATION":69.9998,"RA_OF_ASC_NODE":307.098,"ARG_OF_PERICENTER":275.0579,"MEAN_ANOMALY":85.0271,"EPHEMERIS_TYPE":0,"CLASSIFICATION_TYPE":"U","NORAD_CAT_ID":49176,"ELEMENT_SET_NO":999,"REV_AT_EPOCH":24383,"BSTAR":-0.0003674,"MEAN_MOTION_DOT":-4.47e-5,"MEAN_MOTION_DDOT":0},{"OBJECT_NAME":"STARLINK-3103","OBJECT_ID":"2021-082AZ","EPOCH":"2026-02-16T18:19:16.418208","MEAN_MOTION":14.98329789,"ECCENTRICITY":0.0002557,"INCLINATION":70.0006,"RA_OF_ASC_NODE":307.2246,"ARG_OF_PERICENTER":271.7869,"MEAN_ANOMALY":88.2997,"EPHEMERIS_TYPE":0,"CLASSIFICATION_TYPE":"U","NORAD_CAT_ID":49177,"ELEMENT_SET_NO":999,"REV_AT_EPOCH":24502,"BSTAR":-2.161e-5,"MEAN_MOTION_DOT":-3.51e-6,"MEAN_MOTION_DDOT":0},{"OBJECT_NAME":"STARLINK-3086","OBJECT_ID":"2021-082BA","EPOCH":"2026-02-16T18:55:59.200896","MEAN_MOTION":14.98330957,"ECCENTRICITY":0.0002377,"INCLINATION":70.0017,"RA_OF_ASC_NODE":347.1453,"ARG_OF_PERICENTER":271.9865,"MEAN_ANOMALY":88.1022,"EPHEMERIS_TYPE":0,"CLASSIFICATION_TYPE":"U","NORAD_CAT_ID":49178,"ELEMENT_SET_NO":999,"REV_AT_EPOCH":24400,"BSTAR":2.9033e-5,"MEAN_MOTION_DOT":2.54e-6,"MEAN_MOTION_DDOT":0},{"OBJECT_NAME":"STARLINK-3043","OBJECT_ID":"2021-082BB","EPOCH":"2026-02-16T19:37:23.308896","MEAN_MOTION":14.98347057,"ECCENTRICITY":0.0002052,"INCLINATION":70.0016,"RA_OF_ASC_NODE":307.0676,"ARG_OF_PERICENTER":274.9921,"MEAN_ANOMALY":85.1004,"EPHEMERIS_TYPE":0,"CLASSIFICATION_TYPE":"U","NORAD_CAT_ID":49179,"ELEMENT_SET_NO":999,"REV_AT_EPOCH":24383,"BSTAR":0.00021963,"MEAN_MOTION_DOT":2.53e-5,"MEAN_MOTION_DDOT":0},{"OBJECT_NAME":"STARLINK-3050","OBJECT_ID":"2021-082BC","EPOCH":"2026-02-16T20:00:04.000032","MEAN_MOTION":15.55384363,"ECCENTRICITY":0.0003052,"INCLINATION":70.0015,"RA_OF_ASC_NODE":320.9557,"ARG_OF_PERICENTER":269.6044,"MEAN_ANOMALY":333.1532,"EPHEMERIS_TYPE":0,"CLASSIFICATION_TYPE":"U","NORAD_CAT_ID":49180,"ELEMENT_SET_NO":999,"REV_AT_EPOCH":582,"BSTAR":0.0019262,"MEAN_MOTION_DOT":0.00133527,"MEAN_MOTION_DDOT":0},{"OBJECT_NAME":"STARLINK-3059","OBJECT_ID":"2021-082BD","EPOCH":"2026-02-16T18:31:57.309312","MEAN_MOTION":14.98326651,"ECCENTRICITY":0.0003062,"INCLINATION":70.0009,"RA_OF_ASC_NODE":347.1987,"ARG_OF_PERICENTER":267.3539,"MEAN_ANOMALY":92.727,"EPHEMERIS_TYPE":0,"CLASSIFICATION_TYPE":"U","NORAD_CAT_ID":49181,"ELEMENT_SET_NO":999,"REV_AT_EPOCH":24403,"BSTAR":7.9322e-5,"MEAN_MOTION_DOT":8.54e-6,"MEAN_MOTION_DDOT":0},{"OBJECT_NAME":"STARLINK-3151","OBJECT_ID":"2021-104A","EPOCH":"2026-02-16T18:43:58.325088","MEAN_MOTION":15.09346506,"ECCENTRICITY":0.000153,"INCLINATION":53.2168,"RA_OF_ASC_NODE":323.008,"ARG_OF_PERICENTER":107.2022,"MEAN_ANOMALY":252.9138,"EPHEMERIS_TYPE":0,"CLASSIFICATION_TYPE":"U","NORAD_CAT_ID":49408,"ELEMENT_SET_NO":999,"REV_AT_EPOCH":23547,"BSTAR":0.0049625,"MEAN_MOTION_DOT":0.00080711,"MEAN_MOTION_DDOT":0},{"OBJECT_NAME":"STARLINK-3075","OBJECT_ID":"2021-104B","EPOCH":"2026-02-16T01:35:14.760384","MEAN_MOTION":15.08848919,"ECCENTRICITY":0.00015555,"INCLINATION":53.2191,"RA_OF_ASC_NODE":326.1904,"ARG_OF_PERICENTER":88.7532,"MEAN_ANOMALY":271.3639,"EPHEMERIS_TYPE":0,"CLASSIFICATION_TYPE":"U","NORAD_CAT_ID":49409,"ELEMENT_SET_NO":999,"REV_AT_EPOCH":23537,"BSTAR":-1.8338866e-5,"MEAN_MOTION_DOT":-5.8e-6,"MEAN_MOTION_DDOT":0},{"OBJECT_NAME":"STARLINK-3147","OBJECT_ID":"2021-104C","EPOCH":"2026-02-16T18:55:16.413024","MEAN_MOTION":15.08831851,"ECCENTRICITY":0.0001516,"INCLINATION":53.2181,"RA_OF_ASC_NODE":322.9571,"ARG_OF_PERICENTER":103.944,"MEAN_ANOMALY":256.1721,"EPHEMERIS_TYPE":0,"CLASSIFICATION_TYPE":"U","NORAD_CAT_ID":49410,"ELEMENT_SET_NO":999,"REV_AT_EPOCH":23547,"BSTAR":-2.209e-5,"MEAN_MOTION_DOT":-6.39e-6,"MEAN_MOTION_DDOT":0},{"OBJECT_NAME":"STARLINK-3162","OBJECT_ID":"2021-104D","EPOCH":"2026-02-16T04:26:08.658816","MEAN_MOTION":15.08843124,"ECCENTRICITY":0.0001319,"INCLINATION":53.218,"RA_OF_ASC_NODE":315.6616,"ARG_OF_PERICENTER":97.4961,"MEAN_ANOMALY":262.6181,"EPHEMERIS_TYPE":0,"CLASSIFICATION_TYPE":"U","NORAD_CAT_ID":49411,"ELEMENT_SET_NO":999,"REV_AT_EPOCH":23552,"BSTAR":8.5607e-5,"MEAN_MOTION_DOT":1.075e-5,"MEAN_MOTION_DDOT":0},{"OBJECT_NAME":"STARLINK-3157","OBJECT_ID":"2021-104F","EPOCH":"2026-02-16T04:22:13.505664","MEAN_MOTION":15.0884229,"ECCENTRICITY":0.0001633,"INCLINATION":53.2184,"RA_OF_ASC_NODE":315.6836,"ARG_OF_PERICENTER":93.3472,"MEAN_ANOMALY":266.7707,"EPHEMERIS_TYPE":0,"CLASSIFICATION_TYPE":"U","NORAD_CAT_ID":49413,"ELEMENT_SET_NO":999,"REV_AT_EPOCH":23552,"BSTAR":0.00010101,"MEAN_MOTION_DOT":1.32e-5,"MEAN_MOTION_DDOT":0},{"OBJECT_NAME":"STARLINK-3146","OBJECT_ID":"2021-104G","EPOCH":"2026-02-16T18:48:35.840160","MEAN_MOTION":15.0883626,"ECCENTRICITY":0.0001079,"INCLINATION":53.2175,"RA_OF_ASC_NODE":322.9689,"ARG_OF_PERICENTER":86.5528,"MEAN_ANOMALY":273.5587,"EPHEMERIS_TYPE":0,"CLASSIFICATION_TYPE":"U","NORAD_CAT_ID":49414,"ELEMENT_SET_NO":999,"REV_AT_EPOCH":23547,"BSTAR":6.9144e-6,"MEAN_MOTION_DOT":-1.78e-6,"MEAN_MOTION_DDOT":0},{"OBJECT_NAME":"STARLINK-3159","OBJECT_ID":"2021-104H","EPOCH":"2026-02-16T02:40:09.785568","MEAN_MOTION":15.08842929,"ECCENTRICITY":0.00014473,"INCLINATION":53.2187,"RA_OF_ASC_NODE":315.99,"ARG_OF_PERICENTER":85.3286,"MEAN_ANOMALY":274.7871,"EPHEMERIS_TYPE":0,"CLASSIFICATION_TYPE":"U","NORAD_CAT_ID":49415,"ELEMENT_SET_NO":999,"REV_AT_EPOCH":23550,"BSTAR":2.4310279e-5,"MEAN_MOTION_DOT":9.9e-7,"MEAN_MOTION_DDOT":0},{"OBJECT_NAME":"STARLINK-3133","OBJECT_ID":"2021-104J","EPOCH":"2026-02-16T01:08:44.343744","MEAN_MOTION":15.08850643,"ECCENTRICITY":0.00015384,"INCLINATION":53.2187,"RA_OF_ASC_NODE":326.2701,"ARG_OF_PERICENTER":87.339,"MEAN_ANOMALY":272.7778,"EPHEMERIS_TYPE":0,"CLASSIFICATION_TYPE":"U","NORAD_CAT_ID":49416,"ELEMENT_SET_NO":999,"REV_AT_EPOCH":23536,"BSTAR":0.00013408619,"MEAN_MOTION_DOT":1.847e-5,"MEAN_MOTION_DDOT":0},{"OBJECT_NAME":"STARLINK-3154","OBJECT_ID":"2021-104K","EPOCH":"2026-02-16T03:22:29.751168","MEAN_MOTION":15.08850074,"ECCENTRICITY":9.355e-5,"INCLINATION":53.2189,"RA_OF_ASC_NODE":315.5126,"ARG_OF_PERICENTER":78.6146,"MEAN_ANOMALY":281.4951,"EPHEMERIS_TYPE":0,"CLASSIFICATION_TYPE":"U","NORAD_CAT_ID":49417,"ELEMENT_SET_NO":999,"REV_AT_EPOCH":23551,"BSTAR":-1.191432e-6,"MEAN_MOTION_DOT":-3.07e-6,"MEAN_MOTION_DDOT":0},{"OBJECT_NAME":"STARLINK-3111","OBJECT_ID":"2021-104L","EPOCH":"2026-02-16T04:14:13.364448","MEAN_MOTION":15.08836376,"ECCENTRICITY":0.00013712,"INCLINATION":53.2177,"RA_OF_ASC_NODE":325.7034,"ARG_OF_PERICENTER":79.2546,"MEAN_ANOMALY":280.8601,"EPHEMERIS_TYPE":0,"CLASSIFICATION_TYPE":"U","NORAD_CAT_ID":49418,"ELEMENT_SET_NO":999,"REV_AT_EPOCH":23537,"BSTAR":7.2079527e-5,"MEAN_MOTION_DOT":8.59e-6,"MEAN_MOTION_DDOT":0},{"OBJECT_NAME":"STARLINK-3120","OBJECT_ID":"2021-104M","EPOCH":"2026-02-16T00:47:33.080928","MEAN_MOTION":15.08846029,"ECCENTRICITY":0.00014158,"INCLINATION":53.2173,"RA_OF_ASC_NODE":326.3463,"ARG_OF_PERICENTER":83.1424,"MEAN_ANOMALY":276.973,"EPHEMERIS_TYPE":0,"CLASSIFICATION_TYPE":"U","NORAD_CAT_ID":49419,"ELEMENT_SET_NO":999,"REV_AT_EPOCH":23535,"BSTAR":0.00013694129,"MEAN_MOTION_DOT":1.892e-5,"MEAN_MOTION_DDOT":0},{"OBJECT_NAME":"STARLINK-3110","OBJECT_ID":"2021-104N","EPOCH":"2026-02-16T18:27:23.393664","MEAN_MOTION":15.08840281,"ECCENTRICITY":0.0001417,"INCLINATION":53.2184,"RA_OF_ASC_NODE":323.0397,"ARG_OF_PERICENTER":81.2013,"MEAN_ANOMALY":278.914,"EPHEMERIS_TYPE":0,"CLASSIFICATION_TYPE":"U","NORAD_CAT_ID":49420,"ELEMENT_SET_NO":999,"REV_AT_EPOCH":23546,"BSTAR":3.487e-5,"MEAN_MOTION_DOT":2.67e-6,"MEAN_MOTION_DDOT":0},{"OBJECT_NAME":"STARLINK-3112","OBJECT_ID":"2021-104P","EPOCH":"2026-02-16T04:56:35.496960","MEAN_MOTION":15.0883365,"ECCENTRICITY":0.0001326,"INCLINATION":53.2188,"RA_OF_ASC_NODE":325.3758,"ARG_OF_PERICENTER":89.7921,"MEAN_ANOMALY":270.3224,"EPHEMERIS_TYPE":0,"CLASSIFICATION_TYPE":"U","NORAD_CAT_ID":49421,"ELEMENT_SET_NO":999,"REV_AT_EPOCH":23538,"BSTAR":-3.7711e-5,"MEAN_MOTION_DOT":-8.88e-6,"MEAN_MOTION_DDOT":0},{"OBJECT_NAME":"STARLINK-3161","OBJECT_ID":"2021-104Q","EPOCH":"2026-02-16T19:05:56.108256","MEAN_MOTION":15.08831549,"ECCENTRICITY":0.0001318,"INCLINATION":53.2179,"RA_OF_ASC_NODE":323.2368,"ARG_OF_PERICENTER":91.771,"MEAN_ANOMALY":268.3433,"EPHEMERIS_TYPE":0,"CLASSIFICATION_TYPE":"U","NORAD_CAT_ID":49422,"ELEMENT_SET_NO":999,"REV_AT_EPOCH":23546,"BSTAR":-8.6206e-5,"MEAN_MOTION_DOT":-1.659e-5,"MEAN_MOTION_DDOT":0},{"OBJECT_NAME":"STARLINK-3149","OBJECT_ID":"2021-104R","EPOCH":"2026-02-16T20:00:04.000032","MEAN_MOTION":15.41042196,"ECCENTRICITY":0.0001615,"INCLINATION":53.2174,"RA_OF_ASC_NODE":320.7691,"ARG_OF_PERICENTER":108.6962,"MEAN_ANOMALY":300.9179,"EPHEMERIS_TYPE":0,"CLASSIFICATION_TYPE":"U","NORAD_CAT_ID":49423,"ELEMENT_SET_NO":999,"REV_AT_EPOCH":583,"BSTAR":0.032523,"MEAN_MOTION_DOT":0.01513005,"MEAN_MOTION_DDOT":0},{"OBJECT_NAME":"STARLINK-3135","OBJECT_ID":"2021-104S","EPOCH":"2026-02-16T18:11:30.037056","MEAN_MOTION":15.08844305,"ECCENTRICITY":0.0001955,"INCLINATION":53.2184,"RA_OF_ASC_NODE":323.0934,"ARG_OF_PERICENTER":65.4055,"MEAN_ANOMALY":294.714,"EPHEMERIS_TYPE":0,"CLASSIFICATION_TYPE":"U","NORAD_CAT_ID":49424,"ELEMENT_SET_NO":999,"REV_AT_EPOCH":23546,"BSTAR":0.00022891,"MEAN_MOTION_DOT":3.357e-5,"MEAN_MOTION_DDOT":0},{"OBJECT_NAME":"STARLINK-3139","OBJECT_ID":"2021-104T","EPOCH":"2026-02-16T17:51:40.982976","MEAN_MOTION":15.08836002,"ECCENTRICITY":0.0001601,"INCLINATION":53.2197,"RA_OF_ASC_NODE":323.1606,"ARG_OF_PERICENTER":97.5656,"MEAN_ANOMALY":262.5518,"EPHEMERIS_TYPE":0,"CLASSIFICATION_TYPE":"U","NORAD_CAT_ID":49425,"ELEMENT_SET_NO":999,"REV_AT_EPOCH":23547,"BSTAR":5.5876e-5,"MEAN_MOTION_DOT":6.01e-6,"MEAN_MOTION_DDOT":0}]
